YAOGAN-43 01G           
1 60464U 24148G   26068.44348481  .00010133  00000+0  35873-3 0  9993
2 60464  35.0006  62.0013 0007382 306.3543  53.6492 15.28332833 87004
STARLINK-36089          
1 66947U 25286Y   26068.04475590  .00021521  00000+0  73641-3 0  9995
2 66947  53.1601   1.7547 0001212  92.3094 267.8046 15.30209605 15311
